[Satellite]
VERSION=1.1
NAME=FENGYUN 2D
NICKNAME=FENGYUN 2D
TLE1=1 29640U 06053A   17186.24963419 -.00000369  00000-0  10000-3 0  9999
TLE2=2 29640   4.4852  64.3062 0004807 325.3209 107.2530  1.00265121 38782
